NORAD_CAT_ID,OBJECT_NAME,OBJECT_TYPE,EPOCH,MEAN_MOTION,ECCENTRICITY,INCLINATION,RA_OF_ASC_NODE,ARG_OF_PERICENTER,MEAN_ANOMALY,BSTAR,MEAN_MOTION_DOT,MEAN_MOTION_DDOT,TLE_LINE0,TLE_LINE1,TLE_LINE2,SEMIMAJOR_AXIS,PERIOD,APOGEE,PERIGEE,DECAYED
53134.0,STARLINK-4150,PAYLOAD,2024-02-20 22:57:42,15.08845383,0.0001216,53.2167,290.8247,95.6253,264.4877,0.00024356,3.591e-05,0.0,0 STARLINK-4150,1 53134U 22083C   24051.95674201  .00003591  00000-0  24356-3 0  9998,2 53134  53.2167 290.8247 0001216  95.6253 264.4877 15.08845383 88339,6917.864,95.437,540.57,538.888,0.0
53134.0,STARLINK-4150,PAYLOAD,2024-02-21 14:51:33,15.08847833,0.0001192,53.2162,287.8517,93.73,266.3828,0.00034168,5.155e-05,0.0,0 STARLINK-4150,1 53134U 22083C   24052.61914106  .00005155  00000-0  34168-3 0  9993,2 53134  53.2162 287.8517 0001192  93.7300 266.3828 15.08847833 88435,6917.856,95.437,540.546,538.897,0.0
53134.0,STARLINK-4150,PAYLOAD,2024-02-21 19:37:43,15.08835437,0.0001282,53.2168,286.9618,99.4524,260.6613,5.4324e-06,-2.01e-06,0.0,0 STARLINK-4150,1 53134U 22083C   24052.81786644 -.00000201  00000-0  54324-5 0  9995,2 53134  53.2168 286.9618 0001282  99.4524 260.6613 15.08835437 89093,6917.894,95.438,540.646,538.872,0.0
53134.0,STARLINK-4150,PAYLOAD,2024-02-21 22:48:29,15.08836686,0.0001305,53.2164,286.3667,98.7385,261.3754,7.876e-05,9.66e-06,0.0,0 STARLINK-4150,1 53134U 22083C   24052.95034670  .00000966  00000-0  78760-4 0  9991,2 53134  53.2164 286.3667 0001305  98.7385 261.3754 15.08836686 88483,6917.891,95.438,540.658,538.853,0.0
53134.0,STARLINK-4150,PAYLOAD,2024-02-22 08:20:48,15.08842354,0.0001438,53.2166,284.5823,92.8608,267.2548,0.000124,1.686e-05,0.0,0 STARLINK-4150,1 53134U 22083C   24053.34778480  .00001686  00000-0  12400-3 0  9997,2 53134  53.2166 284.5823 0001438  92.8608 267.2548 15.08842354 88541,6917.873,95.437,540.733,538.743,0.0
53134.0,STARLINK-4150,PAYLOAD,2024-02-22 19:28:30,15.08844687,0.0001518,53.2172,282.5013,95.4502,264.6663,0.00011087,1.477e-05,0.0,0 STARLINK-4150,1 53134U 22083C   24053.81146325  .00001477  00000-0  11087-3 0  9994,2 53134  53.2172 282.5013 0001518  95.4502 264.6663 15.08844687 89246,6917.866,95.437,540.781,538.681,0.0
53134.0,STARLINK-4150,PAYLOAD,2024-02-22 22:39:16,15.08845886,0.0001355,53.2158,281.9051,90.2588,269.8559,0.0001123,1.5e-05,0.0,0 STARLINK-4150,1 53134U 22083C   24053.94394201  .00001500  00000-0  11230-3 0  9993,2 53134  53.2158 281.9051 0001355  90.2588 269.8559 15.08845886 88636,6917.862,95.437,540.665,538.79,0.0
53134.0,STARLINK-4150,PAYLOAD,2024-02-23 14:33:08,15.08838928,0.0001373,53.215,278.9307,87.3701,272.7448,0.00012939,1.772e-05,0.0,0 STARLINK-4150,1 53134U 22083C   24054.60634601  .00001772  00000-0  12939-3 0  9996,2 53134  53.2150 278.9307 0001373  87.3701 272.7448 15.08838928 88732,6917.884,95.438,540.698,538.799,0.0
53134.0,STARLINK-4150,PAYLOAD,2024-02-23 20:54:40,15.08839673,0.0001306,53.2148,277.7413,90.5205,269.5937,0.00011913,1.609e-05,0.0,0 STARLINK-4150,1 53134U 22083C   24054.87130660  .00001609  00000-0  11913-3 0  9991,2 53134  53.2148 277.7413 0001306  90.5205 269.5937 15.08839673 89405,6917.881,95.438,540.65,538.843,0.0
53134.0,STARLINK-4150,PAYLOAD,2024-02-23 22:30:04,15.0883884,0.0001311,53.2153,277.4446,89.4641,270.6502,9.7737e-05,1.268e-05,0.0,0 STARLINK-4150,1 53134U 22083C   24054.93754687  .00001268  00000-0  97737-4 0  9999,2 53134  53.2153 277.4446 0001311  89.4641 270.6502 15.08838840 88787,6917.884,95.438,540.656,538.842,0.0
53134.0,STARLINK-4150,PAYLOAD,2024-02-24 08:02:22,15.08841954,0.0001258,53.2155,275.6582,91.9997,268.1139,8.9265e-05,1.133e-05,0.0,0 STARLINK-4150,1 53134U 22083C   24055.33498549  .00001133  00000-0  89265-4 0  9994,2 53134  53.2155 275.6582 0001258  91.9997 268.1139 15.08841954 88847,6917.874,95.437,540.61,538.869,0.0
53134.0,STARLINK-4150,PAYLOAD,2024-02-24 20:45:27,15.08846029,0.0001248,53.2154,273.2791,92.0254,268.0881,0.00015078,2.113e-05,0.0,0 STARLINK-4150,1 53134U 22083C   24055.86490366  .00002113  00000-0  15078-3 0  9990,2 53134  53.2154 273.2791 0001248  92.0254 268.0881 15.08846029 88929,6917.862,95.437,540.59,538.864,0.0
53134.0,STARLINK-4150,PAYLOAD,2024-02-24 23:56:13,15.08854193,0.0001351,53.2153,272.6842,95.9479,264.1667,9.0025e-05,1.146e-05,0.0,0 STARLINK-4150,1 53134U 22083C   24055.99737911  .00001146  00000-0  90025-4 0  9995,2 53134  53.2153 272.6842 0001351  95.9479 264.1667 15.08854193 89576,6917.837,95.437,540.637,538.767,0.0
53134.0,STARLINK-4150,PAYLOAD,2024-02-25 07:53:09,15.08844467,0.0001248,53.2146,271.1954,103.807,256.3061,0.00013019,1.785e-05,0.0,0 STARLINK-4150,1 53134U 22083C   24056.32858282  .00001785  00000-0  13019-3 0  9994,2 53134  53.2146 271.1954 0001248 103.8070 256.3061 15.08844467 89627,6917.867,95.437,540.595,538.868,0.0
53134.0,STARLINK-4150,PAYLOAD,2024-02-25 20:36:14,15.08845786,0.0001286,53.2161,268.8178,98.9938,261.1199,0.00022107,3.233e-05,0.0,0 STARLINK-4150,1 53134U 22083C   24056.85850270  .00003233  00000-0  22107-3 0  9999,2 53134  53.2161 268.8178 0001286  98.9938 261.1199 15.08845786 89074,6917.863,95.437,540.617,538.838,0.0
53134.0,STARLINK-4150,PAYLOAD,2024-02-26 18:51:38,15.08836485,0.0001406,53.215,264.6539,93.5796,266.5357,-2.6046e-05,-7.02e-06,0.0,0 STARLINK-4150,1 53134U 22083C   24057.78586704 -.00000702  00000-0 -26046-4 0  9997,2 53134  53.2150 264.6539 0001406  93.5796 266.5357 15.08836485 89840,6917.891,95.438,540.729,538.783,0.0
53134.0,STARLINK-4150,PAYLOAD,2024-02-26 20:27:02,15.08836314,0.0001383,53.2164,264.3558,95.291,264.824,6.131e-06,-1.9e-06,0.0,0 STARLINK-4150,1 53134U 22083C   24057.85210885 -.00000190  00000-0  61310-5 0  9993,2 53134  53.2164 264.3558 0001383  95.2910 264.8240 15.08836314 89229,6917.892,95.438,540.713,538.8,0.0
53134.0,STARLINK-4150,PAYLOAD,2024-02-26 23:37:48,15.0883582,0.0001381,53.2164,263.7612,94.7052,265.4098,-2.5695e-06,-3.29e-06,0.0,0 STARLINK-4150,1 53134U 22083C   24057.98458942 -.00000329  00000-0 -25695-5 0  9996,2 53134  53.2164 263.7612 0001381  94.7052 265.4098 15.08835820 89243,6917.893,95.438,540.714,538.803,0.0
53134.0,STARLINK-4150,PAYLOAD,2024-02-27 20:17:49,15.08840858,0.0001321,53.216,259.8972,89.967,270.1474,3.9029e-05,3.33e-06,0.0,0 STARLINK-4150,1 53134U 22083C   24058.84570614  .00000333  00000-0  39029-4 0  9991,2 53134  53.2160 259.8972 0001321  89.9670 270.1474 15.08840858 90004,6917.878,95.438,540.657,538.829,0.0
53134.0,STARLINK-4150,PAYLOAD,2024-02-28 12:11:40,15.08833527,0.0001346,53.2159,256.9253,95.1493,264.9652,6.7438e-05,7.85e-06,0.0,0 STARLINK-4150,1 53134U 22083C   24059.50811162  .00000785  00000-0  67438-4 0  9997,2 53134  53.2159 256.9253 0001346  95.1493 264.9652 15.08833527 90106,6917.9,95.438,540.696,538.834,0.0
53134.0,STARLINK-4150,PAYLOAD,2024-02-28 13:47:04,15.08831994,0.0001356,53.216,256.6277,94.9951,265.1196,5.4129e-05,5.73e-06,0.0,0 STARLINK-4150,1 53134U 22083C   24059.57435311  .00000573  00000-0  54129-4 0  9990,2 53134  53.2160 256.6277 0001356  94.9951 265.1196 15.08831994 89489,6917.905,95.438,540.708,538.832,0.0
53134.0,STARLINK-4150,PAYLOAD,2024-02-28 20:08:36,15.08833188,0.0001346,53.2162,255.4385,95.2043,264.9103,5.6001e-05,6.03e-06,0.0,0 STARLINK-4150,1 53134U 22083C   24059.83931353  .00000603  00000-0  56001-4 0  9991,2 53134  53.2162 255.4385 0001346  95.2043 264.9103 15.08833188 89520,6917.901,95.438,540.697,538.835,0.0
53134.0,STARLINK-4150,PAYLOAD,2024-02-29 05:40:55,15.08837006,0.0001393,53.2167,253.6542,93.8801,266.235,6.9148e-05,8.13e-06,0.0,0 STARLINK-4150,1 53134U 22083C   24060.23675237  .00000813  00000-0  69148-4 0  9992,2 53134  53.2167 253.6542 0001393  93.8801 266.2350 15.08837006 89586,6917.89,95.438,540.718,538.791,0.0
53134.0,STARLINK-4150,PAYLOAD,2024-02-29 19:59:23,15.08844729,0.0001341,53.2166,250.9781,94.5611,265.5534,9.2558e-05,1.186e-05,0.0,0 STARLINK-4150,1 53134U 22083C   24060.83290685  .00001186  00000-0  92558-4 0  9993,2 53134  53.2166 250.9781 0001341  94.5611 265.5534 15.08844729 90308,6917.866,95.437,540.659,538.803,0.0
53134.0,STARLINK-4150,PAYLOAD,2024-02-29 21:34:46,15.08845957,0.0001347,53.2165,250.6806,94.2628,265.8519,0.00010222,1.34e-05,0.0,0 STARLINK-4150,1 53134U 22083C   24060.89914573  .00001340  00000-0  10222-3 0  9997,2 53134  53.2165 250.6806 0001347  94.2628 265.8519 15.08845957 89682,6917.862,95.437,540.659,538.795,0.0
53134.0,STARLINK-4150,PAYLOAD,2024-03-01 11:53:16,15.08824373,0.0001733,53.2163,248.0039,89.0444,271.0746,-1.042e-05,-4.54e-06,0.0,0 STARLINK-4150,1 53134U 22083C   24061.49532817 -.00000454  00000-0 -10420-4 0  9999,2 53134  53.2163 248.0039 0001733  89.0444 271.0746 15.08824373 90408,6917.928,95.439,540.992,538.594,0.0
53134.0,STARLINK-4150,PAYLOAD,2024-03-01 19:50:12,15.08821366,0.0001489,53.2167,246.5169,88.6992,271.4171,-6.1848e-05,-1.272e-05,0.0,0 STARLINK-4150,1 53134U 22083C   24061.82653471 -.00001272  00000-0 -61848-4 0  9995,2 53134  53.2167 246.5169 0001489  88.6992 271.4171 15.08821366 89829,6917.937,95.439,540.832,538.772,0.0
53134.0,STARLINK-4150,PAYLOAD,2024-03-02 19:40:57,15.08851273,0.0001551,53.2169,242.0572,88.4613,271.6557,0.0001316,1.808e-05,0.0,0 STARLINK-4150,1 53134U 22083C   24062.82011517  .00001808  00000-0  13160-3 0  9991,2 53134  53.2169 242.0572 0001551  88.4613 271.6557 15.08851273 90606,6917.846,95.437,540.784,538.638,0.0
53134.0,STARLINK-4150,PAYLOAD,2024-03-03 11:34:49,15.08845946,0.0001643,53.2161,239.0834,89.7942,270.3238,0.00031079,4.662e-05,0.0,0 STARLINK-4150,1 53134U 22083C   24063.48251602  .00004662  00000-0  31079-3 0  9995,2 53134  53.2161 239.0834 0001643  89.7942 270.3238 15.08845946 90709,6917.862,95.437,540.864,538.591,0.0
53134.0,STARLINK-4150,PAYLOAD,2024-03-03 17:56:22,15.08851607,0.0001621,53.2154,237.8949,84.9885,275.1292,0.00047093,7.217e-05,0.0,0 STARLINK-4150,1 53134U 22083C   24063.74747862  .00007217  00000-0  47093-3 0  9994,2 53134  53.2154 237.8949 0001621  84.9885 275.1292 15.08851607 90112,6917.845,95.437,540.831,538.589,0.0
